{
  "type": "FeatureCollection",
  "features": [
    {
      "type": "Feature",
      "properties": {
        "norad_id": 46271,
        "name": "COSMOS 2251 DEB",
        "group": "cosmos-2251-debris",
        "lat": -33.963450745426464,
        "lon": -118.02348757363758,
        "alt_km": 707.2529559648292,
        "timestamp": "2025-12-27T06:41:31.324219+00:00",
        "meta_object_name": "COSMOS 2251 DEB",
        "meta_object_id": "1993-036BWT",
        "meta_epoch": "2025-12-26T09:51:15.606720",
        "meta_mean_motion": 14.51459562,
        "meta_eccentricity": 0.0039505,
        "meta_inclination": 74.0464,
        "meta_ra_of_asc_node": 52.4997,
        "meta_arg_of_pericenter": 171.0739,
        "meta_mean_anomaly": 189.1134,
        "meta_ephemeris_type": 0,
        "meta_classification_type": "U",
        "meta_norad_cat_id": 46271,
        "meta_element_set_no": 999,
        "meta_rev_at_epoch": 84840,
        "meta_bstar": 0.00027567,
        "meta_mean_motion_dot": 1.084e-05,
        "meta_mean_motion_ddot": 0,
        "tle_line1": "1 46271U 93036BWT 25360.41059730  .00001084  00000+0  27567-3 0  9998",
        "tle_line2": "2 46271  74.0464  52.4997 0039505 171.0739 189.1134 14.51459562848406"
      },
      "geometry": {
        "type": "Point",
        "coordinates": [
          -118.02348757363758,
          -33.963450745426464
        ]
      }
    },
    {
      "type": "Feature",
      "properties": {
        "norad_id": 46430,
        "name": "COSMOS 2251 DEB",
        "group": "cosmos-2251-debris",
        "lat": -71.73271461881158,
        "lon": -92.17172494421037,
        "alt_km": 665.7617138195792,
        "timestamp": "2025-12-27T06:41:31.324228+00:00",
        "meta_object_name": "COSMOS 2251 DEB",
        "meta_object_id": "1993-036BWU",
        "meta_epoch": "2025-12-22T16:14:06.887040",
        "meta_mean_motion": 14.51442901,
        "meta_eccentricity": 0.01029275,
        "meta_inclination": 73.9145,
        "meta_ra_of_asc_node": 337.5005,
        "meta_arg_of_pericenter": 256.0795,
        "meta_mean_anomaly": 102.8901,
        "meta_ephemeris_type": 0,
        "meta_classification_type": "U",
        "meta_norad_cat_id": 46430,
        "meta_element_set_no": 999,
        "meta_rev_at_epoch": 79827,
        "meta_bstar": 0.0019695835,
        "meta_mean_motion_dot": 8.403e-05,
        "meta_mean_motion_ddot": 0,
        "tle_line1": "1 46430U 93036BWU 25356.67646860  .00008403  00000+0  19696-2 0  9999",
        "tle_line2": "2 46430  73.9145 337.5005 0102927 256.0795 102.8901 14.51442901798271"
      },
      "geometry": {
        "type": "Point",
        "coordinates": [
          -92.17172494421037,
          -71.73271461881158
        ]
      }
    },
    {
      "type": "Feature",
      "properties": {
        "norad_id": 46432,
        "name": "COSMOS 2251 DEB",
        "group": "cosmos-2251-debris",
        "lat": 18.43316356517052,
        "lon": -97.14551507354247,
        "alt_km": 853.7301782670456,
        "timestamp": "2025-12-27T06:41:31.324239+00:00",
        "meta_object_name": "COSMOS 2251 DEB",
        "meta_object_id": "1993-036BWW",
        "meta_epoch": "2025-12-25T00:54:04.722624",
        "meta_mean_motion": 13.36660179,
        "meta_eccentricity": 0.04737205,
        "meta_inclination": 73.8746,
        "meta_ra_of_asc_node": 91.9173,
        "meta_arg_of_pericenter": 207.4888,
        "meta_mean_anomaly": 335.6994,
        "meta_ephemeris_type": 0,
        "meta_classification_type": "U",
        "meta_norad_cat_id": 46432,
        "meta_element_set_no": 999,
        "meta_rev_at_epoch": 67130,
        "meta_bstar": 0.00092584102,
        "meta_mean_motion_dot": 8.9e-06,
        "meta_mean_motion_ddot": 0,
        "tle_line1": "1 46432U 93036BWW 25359.03755466  .00000890  00000+0  92584-3 0  9997",
        "tle_line2": "2 46432  73.8746  91.9173 0473720 207.4888 335.6994 13.36660179671304"
      },
      "geometry": {
        "type": "Point",
        "coordinates": [
          -97.14551507354247,
          18.43316356517052
        ]
      }
    },
    {
      "type": "Feature",
      "properties": {
        "norad_id": 47045,
        "name": "COSMOS 2251 DEB",
        "group": "cosmos-2251-debris",
        "lat": 24.18481178382611,
        "lon": -64.98707488860941,
        "alt_km": 767.0347891077527,
        "timestamp": "2025-12-27T06:41:31.324249+00:00",
        "meta_object_name": "COSMOS 2251 DEB",
        "meta_object_id": "1993-036BWZ",
        "meta_epoch": "2025-12-22T15:55:55.342272",
        "meta_mean_motion": 14.38905258,
        "meta_eccentricity": 0.00303733,
        "meta_inclination": 74.058,
        "meta_ra_of_asc_node": 130.8857,
        "meta_arg_of_pericenter": 270.255,
        "meta_mean_anomaly": 108.4261,
        "meta_ephemeris_type": 0,
        "meta_classification_type": "U",
        "meta_norad_cat_id": 47045,
        "meta_element_set_no": 999,
        "meta_rev_at_epoch": 7948,
        "meta_bstar": 8.0309913e-05,
        "meta_mean_motion_dot": 2.22e-06,
        "meta_mean_motion_ddot": 0,
        "tle_line1": "1 47045U 93036BWZ 25356.66383498  .00000222  00000+0  80310-4 0  9990",
        "tle_line2": "2 47045  74.0580 130.8857 0030373 270.2550 108.4261 14.38905258 79480"
      },
      "geometry": {
        "type": "Point",
        "coordinates": [
          -64.98707488860941,
          24.18481178382611
        ]
      }
    },
    {
      "type": "Feature",
      "properties": {
        "norad_id": 47048,
        "name": "COSMOS 2251 DEB",
        "group": "cosmos-2251-debris",
        "lat": 59.66793391127831,
        "lon": -38.91257551668868,
        "alt_km": 652.7891655612038,
        "timestamp": "2025-12-27T06:41:31.324259+00:00",
        "meta_object_name": "COSMOS 2251 DEB",
        "meta_object_id": "1993-036BXC",
        "meta_epoch": "2025-12-25T13:52:22.612800",
        "meta_mean_motion": 14.52412051,
        "meta_eccentricity": 0.0132398,
        "meta_inclination": 73.978,
        "meta_ra_of_asc_node": 294.8913,
        "meta_arg_of_pericenter": 119.414,
        "meta_mean_anomaly": 56.3605,
        "meta_ephemeris_type": 0,
        "meta_classification_type": "U",
        "meta_norad_cat_id": 47048,
        "meta_element_set_no": 999,
        "meta_rev_at_epoch": 59876,
        "meta_bstar": 0.0011784,
        "meta_mean_motion_dot": 5.362e-05,
        "meta_mean_motion_ddot": 0,
        "tle_line1": "1 47048U 93036BXC 25359.57803950  .00005362  00000+0  11784-2 0  9993",
        "tle_line2": "2 47048  73.9780 294.8913 0132398 119.4140  56.3605 14.52412051598766"
      },
      "geometry": {
        "type": "Point",
        "coordinates": [
          -38.91257551668868,
          59.66793391127831
        ]
      }
    },
    {
      "type": "Feature",
      "properties": {
        "norad_id": 47051,
        "name": "COSMOS 2251 DEB",
        "group": "cosmos-2251-debris",
        "lat": -65.50583899312367,
        "lon": 18.56098329875738,
        "alt_km": 778.1900159568795,
        "timestamp": "2025-12-27T06:41:31.324269+00:00",
        "meta_object_name": "COSMOS 2251 DEB",
        "meta_object_id": "1993-036BXF",
        "meta_epoch": "2025-12-13T06:55:53.868288",
        "meta_mean_motion": 13.67117141,
        "meta_eccentricity": 0.03401033,
        "meta_inclination": 74.1001,
        "meta_ra_of_asc_node": 182.6908,
        "meta_arg_of_pericenter": 296.1774,
        "meta_mean_anomaly": 246.9893,
        "meta_ephemeris_type": 0,
        "meta_classification_type": "U",
        "meta_norad_cat_id": 47051,
        "meta_element_set_no": 999,
        "meta_rev_at_epoch": 59945,
        "meta_bstar": 0.0019326179,
        "meta_mean_motion_dot": 2.391e-05,
        "meta_mean_motion_ddot": 0,
        "tle_line1": "1 47051U 93036BXF 25347.28881792  .00002391  00000+0  19326-2 0  9991",
        "tle_line2": "2 47051  74.1001 182.6908 0340103 296.1774 246.9893 13.67117141599458"
      },
      "geometry": {
        "type": "Point",
        "coordinates": [
          18.56098329875738,
          -65.50583899312367
        ]
      }
    },
    {
      "type": "Feature",
      "properties": {
        "norad_id": 47052,
        "name": "COSMOS 2251 DEB",
        "group": "cosmos-2251-debris",
        "lat": -66.16867365454301,
        "lon": -86.67395721913105,
        "alt_km": 784.407951586476,
        "timestamp": "2025-12-27T06:41:31.324279+00:00",
        "meta_object_name": "COSMOS 2251 DEB",
        "meta_object_id": "1993-036BXG",
        "meta_epoch": "2025-12-26T15:07:30.448992",
        "meta_mean_motion": 14.35506302,
        "meta_eccentricity": 0.0058529,
        "meta_inclination": 74.0497,
        "meta_ra_of_asc_node": 314.8656,
        "meta_arg_of_pericenter": 25.3344,
        "meta_mean_anomaly": 152.6932,
        "meta_ephemeris_type": 0,
        "meta_classification_type": "U",
        "meta_norad_cat_id": 47052,
        "meta_element_set_no": 999,
        "meta_rev_at_epoch": 61988,
        "meta_bstar": 0.0003685,
        "meta_mean_motion_dot": 1.055e-05,
        "meta_mean_motion_ddot": 0,
        "tle_line1": "1 47052U 93036BXG 25360.63021353  .00001055  00000+0  36850-3 0  9993",
        "tle_line2": "2 47052  74.0497 314.8656 0058529  25.3344 152.6932 14.35506302619883"
      },
      "geometry": {
        "type": "Point",
        "coordinates": [
          -86.67395721913105,
          -66.16867365454301
        ]
      }
    }
  ]
}